BEIDOU-2 IGSO-1 (C06)   
1 36828U 10036A   23166.69705102 -.00000043  00000+0  00000+0 0  9991
2 36828  54.2347 172.9049 0038069 192.4643 257.0863  1.00292377 47228
BEIDOU-2 G4 (C04)       
1 37210U 10057A   23167.45531090 -.00000108  00000+0  00000+0 0  9990
2 37210   1.0115  56.2500 0002468 149.6933  22.4664  1.00272014 46287
BEIDOU-2 IGSO-2 (C07)   
1 37256U 10068A   23166.49288542 -.00000229  00000+0  00000+0 0  9990
2 37256  49.5560 285.2849 0027883 201.3116  60.2845  1.00252411 45789
BEIDOU-2 IGSO-3 (C08)   
1 37384U 11013A   23167.45979845 -.00000206  00000+0  00000+0 0  9998
2 37384  60.8190  50.6728 0022683 177.6049 307.0106  1.00259497 44679
BEIDOU-2 IGSO-4 (C09)   
1 37763U 11038A   23166.72032958  .00000042  00000+0  00000+0 0  9997
2 37763  54.5075 175.4317 0111730 228.5269 212.1575  1.00290313 43648
BEIDOU-2 IGSO-5 (C10)   
1 37948U 11073A   23167.18990310 -.00000178  00000+0  00000+0 0  9998
2 37948  49.6783 284.9376 0092359 218.7509 282.7844  1.00291181 42407
BEIDOU-2 G5 (C05)       
1 38091U 12008A   23166.77396897  .00000061  00000+0  00000+0 0  9991
2 38091   1.5273  66.7337 0002694 284.3110 250.0175  1.00269884 41365
BEIDOU-2 M3 (C11)       
1 38250U 12018A   23166.65490727 -.00000105  00000+0  00000+0 0  9993
2 38250  56.5544 341.5452 0020494 257.4365 102.3356  1.86231222 75508
BEIDOU-2 M4 (C12)       
1 38251U 12018B   23166.04990338 -.00000103  00000+0  00000+0 0  9998
2 38251  56.4667 340.8644 0011397 259.2151 100.6587  1.86234228 75498
BEIDOU-2 M6 (C14)       
1 38775U 12050B   23166.29674208 -.00000057  00000+0  00000+0 0  9995
2 38775  55.6349  99.4873 0014424 330.6647  29.2171  1.86231237 72866
BEIDOU-2 G6 (C02)       
1 38953U 12059A   23166.65800869 -.00000173  00000+0  00000+0 0  9995
2 38953   1.8313  82.4012 0010289 317.6388 184.5551  1.00272788 38903
BEIDOU-3S IGSO-1S (C31) 
1 40549U 15019A   23167.23999913 -.00000213  00000+0  00000+0 0  9997
2 40549  51.2462 308.5080 0039134 191.8807 307.0329  1.00274396 30089
BEIDOU-3S M2S (C57)     
1 40748U 15037A   23164.03821221 -.00000094  00000+0  00000+0 0  9996
2 40748  55.7104 339.5770 0004401  51.2347 308.8099  1.86233615 53631
BEIDOU-3S M1S (C58)     
1 40749U 15037B   23166.52323717 -.00000106  00000+0  00000+0 0  9994
2 40749  55.7125 339.4841 0003569   0.6127 359.3870  1.86232978 53685
BEIDOU-3S IGSO-2S (C56) 
1 40938U 15053A   23167.18806052 -.00000145  00000+0  00000+0 0  9996
2 40938  50.9316 271.6751 0048399 194.0763 319.8500  1.00256003 28342
BEIDOU-2 IGSO-6 (C13)   
1 41434U 16021A   23167.14845985 -.00000170  00000+0  00000+0 0  9996
2 41434  58.6317  49.0848 0045283 223.4979 137.2357  1.00256115 26477
BEIDOU-2 G7 (C03)       
1 41586U 16037A   23167.04493568 -.00000351  00000+0  00000+0 0  9997
2 41586   1.6886  67.0661 0008375 350.7131 332.9820  1.00274721 25787
BEIDOU-3 M1 (C19)       
1 43001U 17069A   23167.13709999 -.00000061  00000+0  00000+0 0  9993
2 43001  55.7873  99.5071 0011229 301.3890  58.4643  1.86231666 38173
BEIDOU-3 M2 (C20)       
1 43002U 17069B   23166.53667919 -.00000059  00000+0  00000+0 0  9999
2 43002  55.7863  99.5636 0009426 321.7956  38.1002  1.86231165 38151
BEIDOU-3 M7 (C27)       
1 43107U 18003A   23167.36196117 -.00000110  00000+0  00000+0 0  9991
2 43107  55.1641 340.2214 0005291  69.3462 290.7089  1.86232532 36930
BEIDOU-3 M8 (C28)       
1 43108U 18003B   23165.68854518 -.00000104  00000+0  00000+0 0  9994
2 43108  55.1579 340.2660 0002104 247.9949 111.9851  1.86230945 36904
BEIDOU-3 M4 (C22)       
1 43207U 18018A   23167.20509023 -.00000061  00000+0  00000+0 0  9990
2 43207  55.7462  99.6065 0006902 343.9270  16.0139  1.86231579 36312
BEIDOU-3 M3 (C21)       
1 43208U 18018B   23166.19778308 -.00000056  00000+0  00000+0 0  9996
2 43208  55.7450  99.6446 0009205 312.1763  47.7083  1.86231431 36290
BEIDOU-3 M9 (C29)       
1 43245U 18029A   23166.95810548 -.00000109  00000+0  00000+0 0  9995
2 43245  55.0617 337.9757 0000814 100.3285 259.6768  1.86232732 35462
BEIDOU-3 M10 (C30)      
1 43246U 18029B   23167.42521323 -.00000110  00000+0  00000+0 0  9991
2 43246  55.0589 337.9889 0003968  19.5243 340.4859  1.86232957 35464
BEIDOU-2 IGSO-7 (C16)   
1 43539U 18057A   23166.93868809 -.00000043  00000+0  00000+0 0  9990
2 43539  55.1068 172.5360 0061765 231.6078 308.3444  1.00255422 18159
BEIDOU-3 M5 (C23)       
1 43581U 18062A   23166.57207151  .00000066  00000+0  00000+0 0  9994
2 43581  54.1886 219.6694 0005106 268.3843  91.6456  1.86231922 33199
BEIDOU-3 M6 (C24)       
1 43582U 18062B   23165.90004823  .00000062  00000+0  00000+0 0  9998
2 43582  54.1885 219.6819 0004003 353.1165   6.9636  1.86229522 33184
BEIDOU-3 M12 (C26)      
1 43602U 18067A   23167.44803144  .00000069  00000+0  00000+0 0  9997
2 43602  54.2749 218.2770 0006490  11.0399 349.0657  1.86231731 32705
BEIDOU-3 M11 (C25)      
1 43603U 18067B   23166.50792753  .00000068  00000+0  00000+0 0  9996
2 43603  54.2721 218.2750 0003650 353.7958   6.2881  1.86231609 32701
BEIDOU-3 M13 (C32)      
1 43622U 18072A   23166.46595000 -.00000059  00000+0  00000+0 0  9995
2 43622  55.7147  99.1744 0007799 299.4839  60.4015  1.86231667 32212
BEIDOU-3 M14 (C33)      
1 43623U 18072B   23166.33140963 -.00000058  00000+0  00000+0 0  9995
2 43623  55.7165  99.1715 0005912 322.9931  36.9293  1.86231662 32212
BEIDOU-3 M16 (C35)      
1 43647U 18078A   23167.02888975 -.00000110  00000+0  00000+0 0  9995
2 43647  54.9580 338.1026 0007380  19.2934 340.7305  1.86227344 31739
BEIDOU-3 M15 (C34)      
1 43648U 18078B   23166.62470946 -.00000108  00000+0  00000+0 0  9993
2 43648  54.9539 338.1209 0004609  35.4649 324.5628  1.86232295 31741
BEIDOU-3 G1 (C59)       
1 43683U 18085A   23167.46090524 -.00000273  00000+0  00000+0 0  9996
2 43683   1.3486 130.2385 0004183 318.6053 121.5622  1.00274676 17057
BEIDOU-3 M17 (C36)      
1 43706U 18093A   23167.31044418  .00000067  00000+0  00000+0 0  9996
2 43706  54.2710 219.5556 0010246 274.2427  85.7312  1.86232045 31095
BEIDOU-3 M18 (C37)      
1 43707U 18093B   23166.63849941  .00000066  00000+0  00000+0 0  9994
2 43707  54.2718 219.5699 0008087 298.3734  61.6339  1.86229792 31097
BEIDOU-3 IGSO-1 (C38)   
1 44204U 19023A   23166.63807466 -.00000246  00000+0  00000+0 0  9998
2 44204  57.0970  49.0941 0018420 200.7834   0.0050  1.00253327 15330
BEIDOU-2 G8 (C01)       
1 44231U 19027A   23166.67004413 -.00000244  00000+0  00000+0 0  9995
2 44231   1.7580  81.2706 0004577 125.8369  82.2371  1.00275616 15072
BEIDOU-3 IGSO-2 (C39)   
1 44337U 19035A   23166.44409187 -.00000051  00000+0  00000+0 0  9999
2 44337  55.1496 168.5032 0033617 198.9333 171.7106  1.00300073 14668
BEIDOU-3 M24 (C46)      
1 44542U 19061A   23167.24777941  .00000067  00000+0  00000+0 0  9997
2 44542  54.4980 219.7718 0007587 335.1682  24.8862  1.86231269 25365
BEIDOU-3 M23 (C45)      
1 44543U 19061B   23166.76332257  .00000067  00000+0  00000+0 0  9991
2 44543  54.4965 219.7574 0005195 315.0492 351.9820  1.86231660 25350
BEIDOU-3 IGSO-3 (C40)   
1 44709U 19073A   23165.75942154 -.00000230  00000+0  00000+0 0  9992
2 44709  56.6718 292.6071 0032407 179.3971 180.5435  1.00252630 13446
BEIDOU-3 M22 (C44)      
1 44793U 19078A   23166.55579932 -.00000109  00000+0  00000+0 0  9994
2 44793  54.8067 338.0961 0006437  27.8430 332.1886  1.86232254 24205
BEIDOU-3 M21 (C43)      
1 44794U 19078B   23166.14961712 -.00000107  00000+0  00000+0 0  9999
2 44794  54.7809 338.0940 0004305  27.7931 332.2281  1.86232708 24207
BEIDOU-3 M19 (C41)      
1 44864U 19090A   23166.77233102 -.00000060  00000+0  00000+0 0  9993
2 44864  55.6495  99.3549 0018152 279.1413 332.3469  1.86231853 23793
BEIDOU-3 M20 (C42)      
1 44865U 19090B   23166.63572711 -.00000060  00000+0  00000+0 0  9991
2 44865  55.6512  99.3920 0016363 292.3312 317.3725  1.86231777 23775
BEIDOU-3 G2 (C60)       
1 45344U 20017A   23167.14563377 -.00000139  00000+0  00000+0 0  9997
2 45344   2.0116  11.9969 0002845 103.9625 280.6614  1.00272224 12271
BEIDOU-3 G3 (C61)       
1 45807U 20040A   23167.04493568 -.00000349  00000+0  00000+0 0  9993
2 45807   0.7090 329.6805 0006948 318.1109 102.8597  1.00278362 11086
BEIDOU-3 G4             
1 56564U 23066A   23166.81648618 -.00000104  00000+0  00000+0 0  9997
2 56564   3.0409 289.2718 0006748 188.4453 240.0678  1.00272115   409
